{"fetched_at":"2026-03-29T16:36:15Z","count":15609,"tles":[{"name":"ONEWEB-0446","line1":"1 51640U 22012U   26087.91895572 -.00000516  00000+0 -15144-2 0  9992","line2":"2 51640  87.8803  52.2592 0001913  77.3805 282.7537 13.10371421198815","category":"Other"}]}